[{"OBJECT_NAME":"TIANMU-1 14","OBJECT_ID":"2023-205D","EPOCH":"2026-03-09T23:38:37.144032","MEAN_MOTION":15.2583937,"ECCENTRICITY":0.00072842,"INCLINATION":97.35,"RA_OF_ASC_NODE":91.4174,"ARG_OF_PERICENTER":335.7472,"MEAN_ANOMALY":24.3423,"EPHEMERIS_TYPE":0,"CLASSIFICATION_TYPE":"U","NORAD_CAT_ID":58648,"ELEMENT_SET_NO":999,"REV_AT_EPOCH":12237,"BSTAR":0.00030290643,"MEAN_MOTION_DOT":7.686e-5,"MEAN_MOTION_DDOT":0},{"OBJECT_NAME":"STARLINK-36374","OBJECT_ID":"2026-005P","EPOCH":"2026-03-09T11:34:48.874368","MEAN_MOTION":15.27580778,"ECCENTRICITY":6.689e-5,"INCLINATION":42.9945,"RA_OF_ASC_NODE":239.2498,"ARG_OF_PERICENTER":289.971,"MEAN_ANOMALY":70.1069,"EPHEMERIS_TYPE":0,"CLASSIFICATION_TYPE":"U","NORAD_CAT_ID":67417,"ELEMENT_SET_NO":999,"REV_AT_EPOCH":866,"BSTAR":0.0008636409,"MEAN_MOTION_DOT":0.0002358,"MEAN_MOTION_DDOT":0}]
